ASTRA 2G                
1 40364U 14089A   26198.62993419  .00000140  00000+0  00000+0 0  9991
2 40364   0.0556  32.7888 0004527  43.1401 114.4662  1.00269657 42277
FENGYUN 2G              
1 40367U 14090A   26198.76552752 -.00000313  00000+0  00000+0 0  9995
2 40367   5.7141  72.4450 0004141 173.4665  64.6484  1.00279768 42305
MUOS-3                  
1 40374U 15002A   26198.40737156 -.00000140  00000+0  00000+0 0  9999
2 40374   4.5772  43.6328 0053672 177.0051 205.7168  1.00273426 41891
INMARSAT 5-F2           
1 40384U 15005A   26198.47084060 -.00000295  00000+0  00000+0 0  9990
2 40384   0.0195  45.7794 0000685  76.8538 287.1527  1.00272724 41291
ABS-3A                  
1 40424U 15010A   26198.62378083 -.00000036  00000+0  00000+0 0  9992
2 40424   0.0125  49.5618 0001586  15.3366  92.1265  1.00270333 41684
EUTELSAT 115 WEST B     
1 40425U 15010B   26198.60159406 -.00000035  00000+0  00000+0 0  9996
2 40425   0.0083 198.2609 0000429 269.9674 288.8534  1.00273807 41686
EXPRESS-AM7             
1 40505U 15012A   26198.63227031  .00000141  00000+0  00000+0 0  9997
2 40505   0.0122  71.5119 0002827  51.2483  80.2735  1.00271769 41314
BEIDOU-3S IGSO-1S       
1 40549U 15019A   26183.80025122 -.00000190  00000+0  00000+0 0  9997
2 40549  49.1798 295.2769 0076860 219.1125 144.2493  1.00680073 41232
THOR 7                  
1 40613U 15022A   26198.62421418 -.00000017  00000+0  00000+0 0  9995
2 40613   0.0325 263.3760 0002375 212.9101  43.2221  1.00274045 41121
TURKMENALEM52E/MONACOSAT
1 40617U 15023A   26198.68794742  .00000095  00000+0  00000+0 0  9994
2 40617   0.0377  85.7986 0002725  37.6417 111.7221  1.00272434 41153
DIRECTV 15              
1 40663U 15026A   26198.60393409 -.00000112  00000+0  00000+0 0  9996
2 40663   0.0230  78.6192 0000160 321.3364   9.9880  1.00272685 40760
SKY MEXICO-1            
1 40664U 15026B   26198.39489149 -.00000244  00000+0  00000+0 0  9996
2 40664   0.0130  67.3239 0002331  65.4002 225.8447  1.00273000 40753
METEOSAT-11 (MSG-4)     
1 40732U 15034A   26198.62620751  .00000051  00000+0  00000+0 0  9998
2 40732   3.2748  70.9144 0002112 354.6343 104.5816  1.00272618  7527
STAR ONE C4             
1 40733U 15034B   26198.09589762 -.00000275  00000+0  00000+0 0  9995
2 40733   0.0294 331.9094 0001358 128.0061 159.4907  1.00268753 40313
WGS F7 (USA 263)        
1 40746U 15036A   26198.56850558  .00000008  00000+0  00000+0 0  9990
2 40746   0.0151  49.2559 0000359 124.1038 141.6810  1.00271206 40172
INTELSAT 34 (IS-34)     
1 40874U 15039A   26198.56598794 -.00000295  00000+0  00000+0 0  9995
2 40874   0.0102  26.4718 0000437 330.4627  86.7015  1.00271968 39930
EUTELSAT 8 WEST B       
1 40875U 15039B   26198.62256750 -.00000075  00000+0  00000+0 0  9992
2 40875   0.0633 353.3587 0003803 118.3712  39.8348  1.00271563 39966
GSAT-6                  
1 40880U 15041A   26198.64067703 -.00000171  00000+0  00000+0 0  9998
2 40880   1.9950  82.2099 0002972  31.1195 135.2803  1.00272845 39908
INMARSAT 5-F3           
1 40882U 15042A   26198.58859399  .00000041  00000+0  00000+0 0  9999
2 40882   0.0198  49.2577 0000477 104.1096 173.5148  1.00274453 39877
MUOS-4                  
1 40887U 15044A   26198.63911700 -.00000103  00000+0  00000+0 0  9997
2 40887   4.3861  42.4099 0056509   3.5681 194.5361  1.00271533 39864
TJS-1                   
1 40892U 15046A   26198.62267034 -.00000166  00000+0  00000+0 0  9997
2 40892   0.4000  84.7561 0005122  20.0793 209.7874  1.00271374 39870
EXPRESS-AM8             
1 40895U 15048A   26198.62144083 -.00000121  00000+0  00000+0 0  9991
2 40895   0.0151 326.7311 0000257  54.7972 123.6138  1.00271528 39659
BEIDOU-3S IGSO-2S       
1 40938U 15053A   26198.64267037 -.00000104  00000+0  00000+0 0  9993
2 40938  49.1745 258.4175 0066282 193.2835 168.3012  1.00252524 39669
SKY MUSTER 1 (NBN1A)    
1 40940U 15054A   26198.65208051  .00000000  00000+0  00000+0 0  9993
2 40940   0.0136  33.7432 0001638  84.1459 192.5772  1.00269954 39562
ARSAT 2                 
1 40941U 15054B   26198.39445816 -.00000234  00000+0  00000+0 0  9997
2 40941   0.0571 269.1798 0001941 200.0476 246.9704  1.00269801 39606
MORELOS 3               
1 40946U 15056A   26198.60194073 -.00000053  00000+0  00000+0 0  9993
2 40946   3.2121  15.8394 0000481 146.0338 237.1516  1.00270789 39597
APSTAR-9                
1 40982U 15059A   26198.66742391 -.00000275  00000+0  00000+0 0  9990
2 40982   0.0300  55.4651 0003144 130.6485 131.6539  1.00271241 39427
TURKSAT 4B              
1 40984U 15060A   26198.42028497  .00000105  00000+0  00000+0 0  9993
2 40984   0.0524 253.2975 0002261 226.6839  16.5668  1.00276633 39404
ZHONGXING-2C            
1 41021U 15063A   26198.64486938 -.00000333  00000+0  00000+0 0  9995
2 41021   0.3505  88.4920 0008167 101.2615  81.3024  1.00270742 39285
GSAT-15                 
1 41028U 15065A   26198.64284369 -.00000267  00000+0  00000+0 0  9994
2 41028   0.1114 263.8469 0003487 175.0690 181.4646  1.00272544 39100
BADR-7 (ARABSAT-6B)     
1 41029U 15065B   26198.74055325  .00000000  00000+0  00000+0 0  9998
2 41029   0.0136 225.4594 0004636 338.6619  24.0365  1.00268134 39078
LAOSAT 1                
1 41034U 15067A   26198.64982718  .00000000  00000+0  00000+0 0  9990
2 41034   0.0141 258.7812 0002815 166.0806 233.0390  1.00271907 39162
