OBJECT_NAME,OBJECT_ID,EPOCH,MEAN_MOTION,ECCENTRICITY,INCLINATION,RA_OF_ASC_NODE,ARG_OF_PERICENTER,MEAN_ANOMALY,EPHEMERIS_TYPE,CLASSIFICATION_TYPE,NORAD_CAT_ID,ELEMENT_SET_NO,REV_AT_EPOCH,BSTAR,MEAN_MOTION_DOT,MEAN_MOTION_DDOT
ASTRA 2G,2014-089A,2026-07-17T15:07:06.314016,1.00269657,.0004527,0.0556,32.7888,43.1401,114.4662,0,U,40364,999,4227,0,.14E-5,0
FENGYUN 2G,2014-090A,2026-07-17T18:22:21.577728,1.00279768,.0004141,5.7141,72.4450,173.4665,64.6484,0,U,40367,999,4230,0,-.313E-5,0
MUOS-3,2015-002A,2026-07-17T09:46:36.902784,1.00273426,.0053672,4.5772,43.6328,177.0051,205.7168,0,U,40374,999,4189,0,-.14E-5,0
INMARSAT 5-F2,2015-005A,2026-07-17T11:18:00.627840,1.00272724,.0000685,0.0195,45.7794,76.8538,287.1527,0,U,40384,999,4129,0,-.295E-5,0
ABS-3A,2015-010A,2026-07-17T14:58:14.663712,1.00270333,.0001586,0.0125,49.5618,15.3366,92.1265,0,U,40424,999,4168,0,-.36E-6,0
EUTELSAT 115 WEST B,2015-010B,2026-07-17T14:26:17.726784,1.00273807,.0000429,0.0083,198.2609,269.9674,288.8534,0,U,40425,999,4168,0,-.35E-6,0
EXPRESS-AM7,2015-012A,2026-07-17T15:10:28.154784,1.00271769,.0002827,0.0122,71.5119,51.2483,80.2735,0,U,40505,999,4131,0,.141E-5,0
BEIDOU-3S IGSO-1S,2015-019A,2026-07-02T19:12:21.705408,1.00680073,.00768606,49.1798,295.2769,219.1125,144.2493,0,U,40549,999,4123,0,-.19E-5,0
THOR 7,2015-022A,2026-07-17T14:58:52.105152,1.00274045,.0002375,0.0325,263.3760,212.9101,43.2221,0,U,40613,999,4112,0,-.17E-6,0
TURKMENALEM52E/MONACOSAT,2015-023A,2026-07-17T16:30:38.657088,1.00272434,.0002725,0.0377,85.7986,37.6417,111.7221,0,U,40617,999,4115,0,.95E-6,0
DIRECTV 15,2015-026A,2026-07-17T14:29:39.905376,1.00272685,.000016,0.0230,78.6192,321.3364,9.9880,0,U,40663,999,4076,0,-.112E-5,0
SKY MEXICO-1,2015-026B,2026-07-17T09:28:38.624736,1.00273000,.0002331,0.0130,67.3239,65.4002,225.8447,0,U,40664,999,4075,0,-.244E-5,0
METEOSAT-11 (MSG-4),2015-034A,2026-07-17T15:01:44.328864,1.00272618,.0002112,3.2748,70.9144,354.6343,104.5816,0,U,40732,999,752,0,.51E-6,0
STAR ONE C4,2015-034B,2026-07-17T02:18:05.554368,1.00268753,.00013582,0.0294,331.9094,128.0061,159.4907,0,U,40733,999,4031,0,-.275E-5,0
WGS F7 (USA 263),2015-036A,2026-07-17T13:38:38.882112,1.00271206,.0000359,0.0151,49.2559,124.1038,141.6810,0,U,40746,999,4017,0,.8E-7,0
INTELSAT 34 (IS-34),2015-039A,2026-07-17T13:35:01.358016,1.00271968,.0000437,0.0102,26.4718,330.4627,86.7015,0,U,40874,999,3993,0,-.295E-5,0
EUTELSAT 8 WEST B,2015-039B,2026-07-17T14:56:29.832000,1.00271563,.0003803,0.0633,353.3587,118.3712,39.8348,0,U,40875,999,3996,0,-.75E-6,0
GSAT-6,2015-041A,2026-07-17T15:22:34.495392,1.00272845,.0002972,1.9950,82.2099,31.1195,135.2803,0,U,40880,999,3990,0,-.171E-5,0
INMARSAT 5-F3,2015-042A,2026-07-17T14:07:34.520736,1.00274453,.0000477,0.0198,49.2577,104.1096,173.5148,0,U,40882,999,3987,0,.41E-6,0
MUOS-4,2015-044A,2026-07-17T15:20:19.708800,1.00271533,.0056509,4.3861,42.4099,3.5681,194.5361,0,U,40887,999,3986,0,-.103E-5,0
TJS-1,2015-046A,2026-07-17T14:56:38.717376,1.00271374,.0005122,0.4000,84.7561,20.0793,209.7874,0,U,40892,999,3987,0,-.166E-5,0
EXPRESS-AM8,2015-048A,2026-07-17T14:54:52.487712,1.00271528,.0000257,0.0151,326.7311,54.7972,123.6138,0,U,40895,999,3965,0,-.121E-5,0
BEIDOU-3S IGSO-2S,2015-053A,2026-07-17T15:25:26.719968,1.00252524,.0066282,49.1745,258.4175,193.2835,168.3012,0,U,40938,999,3966,0,-.104E-5,0
SKY MUSTER 1 (NBN1A),2015-054A,2026-07-17T15:38:59.756064,1.00269954,.0001638,0.0136,33.7432,84.1459,192.5772,0,U,40940,999,3956,0,0,0
ARSAT 2,2015-054B,2026-07-17T09:28:01.185024,1.00269801,.0001941,0.0571,269.1798,200.0476,246.9704,0,U,40941,999,3960,0,-.234E-5,0
MORELOS 3,2015-056A,2026-07-17T14:26:47.679072,1.00270789,.0000481,3.2121,15.8394,146.0338,237.1516,0,U,40946,999,3959,0,-.53E-6,0
APSTAR-9,2015-059A,2026-07-17T16:01:05.425824,1.00271241,.0003144,0.0300,55.4651,130.6485,131.6539,0,U,40982,999,3942,0,-.275E-5,0
TURKSAT 4B,2015-060A,2026-07-17T10:05:12.621408,1.00276633,.0002261,0.0524,253.2975,226.6839,16.5668,0,U,40984,999,3940,0,.105E-5,0
ZHONGXING-2C,2015-063A,2026-07-17T15:28:36.714432,1.00270742,.0008167,0.3505,88.4920,101.2615,81.3024,0,U,41021,999,3928,0,-.333E-5,0
GSAT-15,2015-065A,2026-07-17T15:25:41.694816,1.00272544,.0003487,0.1114,263.8469,175.0690,181.4646,0,U,41028,999,3910,0,-.267E-5,0
BADR-7 (ARABSAT-6B),2015-065B,2026-07-17T17:46:23.800800,1.00268134,.0004636,0.0136,225.4594,338.6619,24.0365,0,U,41029,999,3907,0,0,0
LAOSAT 1,2015-067A,2026-07-17T15:35:45.068352,1.00271907,.0002815,0.0141,258.7812,166.0806,233.0390,0,U,41034,999,3916,0,0,0
